CCSDS_OMM_VERS = 2.0
CREATION_DATE  = 
ORIGINATOR     = 

OBJECT_NAME    = COSMOS 2242
OBJECT_ID      = 1993-024A
CENTER_NAME    = EARTH
REF_FRAME      = TEME
TIME_SYSTEM    = UTC
MEAN_ELEMENT_THEORY = SGP/SGP4

EPOCH          = 2026-03-17T22:14:28.795488
MEAN_MOTION    = 14.96582891
ECCENTRICITY   = .00149209
INCLINATION    = 82.5152
RA_OF_ASC_NODE = 258.8354
ARG_OF_PERICENTER = 278.7073
MEAN_ANOMALY   = 81.2459

EPHEMERIS_TYPE = 0
CLASSIFICATION_TYPE = U
NORAD_CAT_ID   = 22626
ELEMENT_SET_NO = 999
REV_AT_EPOCH   = 78162
BSTAR          = .15983762E-3
MEAN_MOTION_DOT = .1848E-4
MEAN_MOTION_DDOT = 0

CCSDS_OMM_VERS = 2.0
CREATION_DATE  = 
ORIGINATOR     = 

OBJECT_NAME    = SL-16 R/B
OBJECT_ID      = 1993-059B
CENTER_NAME    = EARTH
REF_FRAME      = TEME
TIME_SYSTEM    = UTC
MEAN_ELEMENT_THEORY = SGP/SGP4

EPOCH          = 2026-03-17T22:43:10.996320
MEAN_MOTION    = 14.17232800
ECCENTRICITY   = .00180583
INCLINATION    = 70.9931
RA_OF_ASC_NODE = 353.7153
ARG_OF_PERICENTER = 204.4578
MEAN_ANOMALY   = 155.5691

EPHEMERIS_TYPE = 0
CLASSIFICATION_TYPE = U
NORAD_CAT_ID   = 22803
ELEMENT_SET_NO = 999
REV_AT_EPOCH   = 68070
BSTAR          = .13698116E-3
MEAN_MOTION_DOT = .229E-5
MEAN_MOTION_DDOT = 0

CCSDS_OMM_VERS = 2.0
CREATION_DATE  = 
ORIGINATOR     = 

OBJECT_NAME    = ARIANE 40 R/B
OBJECT_ID      = 1993-061H
CENTER_NAME    = EARTH
REF_FRAME      = TEME
TIME_SYSTEM    = UTC
MEAN_ELEMENT_THEORY = SGP/SGP4

EPOCH          = 2026-03-17T15:49:18.348960
MEAN_MOTION    = 14.32865144
ECCENTRICITY   = .00095815
INCLINATION    = 98.4901
RA_OF_ASC_NODE = 145.3890
ARG_OF_PERICENTER = 258.7194
MEAN_ANOMALY   = 101.2914

EPHEMERIS_TYPE = 0
CLASSIFICATION_TYPE = U
NORAD_CAT_ID   = 22830
ELEMENT_SET_NO = 999
REV_AT_EPOCH   = 69524
BSTAR          = .8536582E-4
MEAN_MOTION_DOT = .19E-5
MEAN_MOTION_DDOT = 0

CCSDS_OMM_VERS = 2.0
CREATION_DATE  = 
ORIGINATOR     = 

OBJECT_NAME    = COSMOS 2278
OBJECT_ID      = 1994-023A
CENTER_NAME    = EARTH
REF_FRAME      = TEME
TIME_SYSTEM    = UTC
MEAN_ELEMENT_THEORY = SGP/SGP4

EPOCH          = 2026-03-17T15:50:41.048448
MEAN_MOTION    = 14.14379228
ECCENTRICITY   = .00086016
INCLINATION    = 71.0545
RA_OF_ASC_NODE = 158.4238
ARG_OF_PERICENTER = 359.1356
MEAN_ANOMALY   = 0.9750

EPHEMERIS_TYPE = 0
CLASSIFICATION_TYPE = U
NORAD_CAT_ID   = 23087
ELEMENT_SET_NO = 999
REV_AT_EPOCH   = 64593
BSTAR          = -.46276188E-4
MEAN_MOTION_DOT = -.136E-5
MEAN_MOTION_DDOT = 0

CCSDS_OMM_VERS = 2.0
CREATION_DATE  = 
ORIGINATOR     = 

OBJECT_NAME    = SL-16 R/B
OBJECT_ID      = 1994-023B
CENTER_NAME    = EARTH
REF_FRAME      = TEME
TIME_SYSTEM    = UTC
MEAN_ELEMENT_THEORY = SGP/SGP4

EPOCH          = 2026-03-17T21:57:50.828832
MEAN_MOTION    = 14.15009992
ECCENTRICITY   = .00055414
INCLINATION    = 70.9991
RA_OF_ASC_NODE = 53.6110
ARG_OF_PERICENTER = 277.5507
MEAN_ANOMALY   = 82.4986

EPHEMERIS_TYPE = 0
CLASSIFICATION_TYPE = U
NORAD_CAT_ID   = 23088
ELEMENT_SET_NO = 999
REV_AT_EPOCH   = 64725
BSTAR          = -.7914202E-5
MEAN_MOTION_DOT = -.63E-6
MEAN_MOTION_DDOT = 0

CCSDS_OMM_VERS = 2.0
CREATION_DATE  = 
ORIGINATOR     = 

OBJECT_NAME    = SL-16 R/B
OBJECT_ID      = 1994-074B
CENTER_NAME    = EARTH
REF_FRAME      = TEME
TIME_SYSTEM    = UTC
MEAN_ELEMENT_THEORY = SGP/SGP4

EPOCH          = 2026-03-17T23:28:35.044032
MEAN_MOTION    = 14.79417455
ECCENTRICITY   = .00064266
INCLINATION    = 97.7096
RA_OF_ASC_NODE = 107.4600
ARG_OF_PERICENTER = 181.5947
MEAN_ANOMALY   = 244.0594

EPHEMERIS_TYPE = 0
CLASSIFICATION_TYPE = U
NORAD_CAT_ID   = 23343
ELEMENT_SET_NO = 999
REV_AT_EPOCH   = 68847
BSTAR          = .6182554E-4
MEAN_MOTION_DOT = .412E-5
MEAN_MOTION_DDOT = 0

CCSDS_OMM_VERS = 2.0
CREATION_DATE  = 
ORIGINATOR     = 

OBJECT_NAME    = SL-16 R/B
OBJECT_ID      = 1994-077B
CENTER_NAME    = EARTH
REF_FRAME      = TEME
TIME_SYSTEM    = UTC
MEAN_ELEMENT_THEORY = SGP/SGP4

EPOCH          = 2026-03-17T23:08:32.019072
MEAN_MOTION    = 14.15564603
ECCENTRICITY   = .00026179
INCLINATION    = 70.9850
RA_OF_ASC_NODE = 335.0826
ARG_OF_PERICENTER = 202.0150
MEAN_ANOMALY   = 158.0861

EPHEMERIS_TYPE = 0
CLASSIFICATION_TYPE = U
NORAD_CAT_ID   = 23405
ELEMENT_SET_NO = 999
REV_AT_EPOCH   = 61740
BSTAR          = .18271101E-3
MEAN_MOTION_DOT = .31E-5
MEAN_MOTION_DDOT = 0

CCSDS_OMM_VERS = 2.0
CREATION_DATE  = 
ORIGINATOR     = 

OBJECT_NAME    = ARIANE 40+ R/B
OBJECT_ID      = 1995-021B
CENTER_NAME    = EARTH
REF_FRAME      = TEME
TIME_SYSTEM    = UTC
MEAN_ELEMENT_THEORY = SGP/SGP4

EPOCH          = 2026-03-17T23:15:48.888576
MEAN_MOTION    = 14.39778289
ECCENTRICITY   = .00079097
INCLINATION    = 98.4481
RA_OF_ASC_NODE = 148.3392
ARG_OF_PERICENTER = 114.8061
MEAN_ANOMALY   = 57.8724

EPHEMERIS_TYPE = 0
CLASSIFICATION_TYPE = U
NORAD_CAT_ID   = 23561
ELEMENT_SET_NO = 999
REV_AT_EPOCH   = 62043
BSTAR          = .92109782E-4
MEAN_MOTION_DOT = .245E-5
MEAN_MOTION_DDOT = 0

CCSDS_OMM_VERS = 2.0
CREATION_DATE  = 
ORIGINATOR     = 

OBJECT_NAME    = SL-16 R/B
OBJECT_ID      = 1995-058B
CENTER_NAME    = EARTH
REF_FRAME      = TEME
TIME_SYSTEM    = UTC
MEAN_ELEMENT_THEORY = SGP/SGP4

EPOCH          = 2026-03-17T23:19:09.961248
MEAN_MOTION    = 14.15500231
ECCENTRICITY   = .00104104
INCLINATION    = 71.0222
RA_OF_ASC_NODE = 162.8684
ARG_OF_PERICENTER = 110.6590
MEAN_ANOMALY   = 249.5651

EPHEMERIS_TYPE = 0
CLASSIFICATION_TYPE = U
NORAD_CAT_ID   = 23705
ELEMENT_SET_NO = 999
REV_AT_EPOCH   = 56902
BSTAR          = .83494535E-4
MEAN_MOTION_DOT = .116E-5
MEAN_MOTION_DDOT = 0

CCSDS_OMM_VERS = 2.0
CREATION_DATE  = 
ORIGINATOR     = 

OBJECT_NAME    = SL-16 R/B
OBJECT_ID      = 1996-051B
CENTER_NAME    = EARTH
REF_FRAME      = TEME
TIME_SYSTEM    = UTC
MEAN_ELEMENT_THEORY = SGP/SGP4

EPOCH          = 2026-03-17T11:03:14.351328
MEAN_MOTION    = 14.12417668
ECCENTRICITY   = .00144253
INCLINATION    = 70.7600
RA_OF_ASC_NODE = 158.7921
ARG_OF_PERICENTER = 135.9266
MEAN_ANOMALY   = 224.3007

EPHEMERIS_TYPE = 0
CLASSIFICATION_TYPE = U
NORAD_CAT_ID   = 24298
ELEMENT_SET_NO = 999
REV_AT_EPOCH   = 52274
BSTAR          = .67834013E-4
MEAN_MOTION_DOT = .76E-6
MEAN_MOTION_DDOT = 0

CCSDS_OMM_VERS = 2.0
CREATION_DATE  = 
ORIGINATOR     = 

OBJECT_NAME    = ORBVIEW 2 (SEASTAR)
OBJECT_ID      = 1997-037A
CENTER_NAME    = EARTH
REF_FRAME      = TEME
TIME_SYSTEM    = UTC
MEAN_ELEMENT_THEORY = SGP/SGP4

EPOCH          = 2026-03-17T22:06:59.551776
MEAN_MOTION    = 14.35500759
ECCENTRICITY   = .00028645
INCLINATION    = 98.8581
RA_OF_ASC_NODE = 241.4519
ARG_OF_PERICENTER = 54.9576
MEAN_ANOMALY   = 305.1877

EPHEMERIS_TYPE = 0
CLASSIFICATION_TYPE = U
NORAD_CAT_ID   = 24883
ELEMENT_SET_NO = 999
REV_AT_EPOCH   = 50965
BSTAR          = .96015853E-4
MEAN_MOTION_DOT = .229E-5
MEAN_MOTION_DDOT = 0

CCSDS_OMM_VERS = 2.0
CREATION_DATE  = 
ORIGINATOR     = 

OBJECT_NAME    = SL-16 R/B
OBJECT_ID      = 1998-043G
CENTER_NAME    = EARTH
REF_FRAME      = TEME
TIME_SYSTEM    = UTC
MEAN_ELEMENT_THEORY = SGP/SGP4

EPOCH          = 2026-03-17T20:53:34.525536
MEAN_MOTION    = 14.26051681
ECCENTRICITY   = .00097885
INCLINATION    = 98.8268
RA_OF_ASC_NODE = 30.2925
ARG_OF_PERICENTER = 357.3010
MEAN_ANOMALY   = 2.8115

EPHEMERIS_TYPE = 0
CLASSIFICATION_TYPE = U
NORAD_CAT_ID   = 25400
ELEMENT_SET_NO = 999
REV_AT_EPOCH   = 44015
BSTAR          = .39800145E-4
MEAN_MOTION_DOT = .5E-6
MEAN_MOTION_DDOT = 0

