COSMOS 2242             
1 22626U 93024A   26076.92672217  .00001848  00000+0  15984-3 0  9993
2 22626  82.5152 258.8354 0014920 278.7073  81.2459 14.96582891781624
SL-16 R/B               
1 22803U 93059B   26076.94665505  .00000229  00000+0  13698-3 0  9994
2 22803  70.9931 353.7153 0018058 204.4578 155.5691 14.17232800680706
ARIANE 40 R/B           
1 22830U 93061H   26076.65924015  .00000190  00000+0  85366-4 0  9998
2 22830  98.4901 145.3890 0009581 258.7194 101.2914 14.32865144695249
COSMOS 2278             
1 23087U 94023A   26076.66019732 -.00000136  00000+0 -46276-4 0  9993
2 23087  71.0545 158.4238 0008601 359.1356   0.9750 14.14379228645931
SL-16 R/B               
1 23088U 94023B   26076.91517163 -.00000063  00000+0 -79142-5 0  9991
2 23088  70.9991  53.6110 0005541 277.5507  82.4986 14.15009992647253
SL-16 R/B               
1 23343U 94074B   26076.97818338  .00000412  00000+0  61826-4 0  9990
2 23343  97.7096 107.4600 0006426 181.5947 244.0594 14.79417455688474
SL-16 R/B               
1 23405U 94077B   26076.96425948  .00000310  00000+0  18271-3 0  9994
2 23405  70.9850 335.0826 0002617 202.0150 158.0861 14.15564603617400
ARIANE 40+ R/B          
1 23561U 95021B   26076.96931584  .00000245  00000+0  92110-4 0  9997
2 23561  98.4481 148.3392 0007909 114.8061  57.8724 14.39778289620435
SL-16 R/B               
1 23705U 95058B   26076.97164307  .00000116  00000+0  83495-4 0  9992
2 23705  71.0222 162.8684 0010410 110.6590 249.5651 14.15500231569022
SL-16 R/B               
1 24298U 96051B   26076.46058277  .00000076  00000+0  67834-4 0  9990
2 24298  70.7600 158.7921 0014425 135.9266 224.3007 14.12417668522746
ORBVIEW 2 (SEASTAR)     
1 24883U 97037A   26076.92152259  .00000229  00000+0  96016-4 0  9995
2 24883  98.8581 241.4519 0002864  54.9576 305.1877 14.35500759509653
SL-16 R/B               
1 25400U 98043G   26076.87053849  .00000050  00000+0  39800-4 0  9998
2 25400  98.8268  30.2925 0009788 357.3010   2.8115 14.26051681440151
